{
    "links": {
        "self": "http://www.neowsapp.com/rest/v1/neo/3547633?api_key=iIulBulltgU6a56xZRHN4H3l9WmuAYTsLGpBGhQ2"
    },
    "id": "3547633",
    "neo_reference_id": "3547633",
    "name": "(2010 SL15)",
    "designation": "2010 SL15",
    "nasa_jpl_url": "http://ssd.jpl.nasa.gov/sbdb.cgi?sstr=3547633",
    "absolute_magnitude_h": 25.2,
    "estimated_diameter": {
        "kilometers": {
            "estimated_diameter_min": 0.0242412481,
            "estimated_diameter_max": 0.0542050786
        },
        "meters": {
            "estimated_diameter_min": 24.2412481101,
            "estimated_diameter_max": 54.2050786336
        },
        "miles": {
            "estimated_diameter_min": 0.0150628086,
            "estimated_diameter_max": 0.0336814639
        },
        "feet": {
            "estimated_diameter_min": 79.5316564495,
            "estimated_diameter_max": 177.8381901842
        }
    },
    "is_potentially_hazardous_asteroid": false,
    "close_approach_data": [
        {
            "close_approach_date": "2010-10-09",
            "close_approach_date_full": "2010-Oct-09 16:58",
            "epoch_date_close_approach": 1286643480000,
            "relative_velocity": {
                "kilometers_per_second": "5.4578523127",
                "kilometers_per_hour": "19648.2683255693",
                "miles_per_hour": "12208.669838185"
            },
            "miss_distance": {
                "astronomical": "0.1163057797",
                "lunar": "45.2429483033",
                "kilometers": "17399096.911809239",
                "miles": "10811297.4944719382"
            },
            "orbiting_body": "Earth"
        },
        {
            "close_approach_date": "2104-11-23",
            "close_approach_date_full": "2104-Nov-23 05:42",
            "epoch_date_close_approach": 4256862120000,
            "relative_velocity": {
                "kilometers_per_second": "13.8284794493",
                "kilometers_per_hour": "49782.526017584",
                "miles_per_hour": "30932.9256802038"
            },
            "miss_distance": {
                "astronomical": "0.2172976574",
                "lunar": "84.5287887286",
                "kilometers": "32507266.703029738",
                "miles": "20199078.8855288644"
            },
            "orbiting_body": "Earth"
        },
        {
            "close_approach_date": "2108-08-20",
            "close_approach_date_full": "2108-Aug-20 05:13",
            "epoch_date_close_approach": 4374882780000,
            "relative_velocity": {
                "kilometers_per_second": "19.9060454001",
                "kilometers_per_hour": "71661.7634402534",
                "miles_per_hour": "44527.8329554175"
            },
            "miss_distance": {
                "astronomical": "0.4170938145",
                "lunar": "162.2494938405",
                "kilometers": "62396346.239375115",
                "miles": "38771291.704461987"
            },
            "orbiting_body": "Earth"
        }
    ],
    "orbital_data": {
        "orbit_id": "11",
        "orbit_determination_date": "2017-04-06 08:56:31",
        "first_observation_date": "2010-09-29",
        "last_observation_date": "2010-10-29",
        "data_arc_in_days": 30,
        "observations_used": 31,
        "orbit_uncertainty": "7",
        "minimum_orbit_intersection": ".103217",
        "jupiter_tisserand_invariant": "3.229",
        "epoch_osculation": "2459000.5",
        "eccentricity": ".5601804781472927",
        "semi_major_axis": "2.500458083327892",
        "inclination": ".7970024914021866",
        "ascending_node_longitude": "65.13854057051267",
        "orbital_period": "1444.201510133934",
        "perihelion_distance": "1.099750278622011",
        "perihelion_argument": "315.9857089461411",
        "aphelion_distance": "3.901165888033774",
        "perihelion_time": "2458386.097128588382",
        "mean_anomaly": "153.1538584859048",
        "mean_motion": ".2492726932314411",
        "equinox": "J2000",
        "orbit_class": {
            "orbit_class_type": "AMO",
            "orbit_class_description": "Near-Earth asteroid orbits similar to that of 1221 Amor",
            "orbit_class_range": "1.017 AU < q (perihelion) < 1.3 AU"
        }
    },
    "is_sentry_object": false
}